[
    {
        "Altitude(m)": 558893.8297022184,
        "Argument of Periapsis(deg)": 0.006622991110713501,
        "Eccentricity": 0.0,
        "Inclination(deg)": 53.0,
        "Latitude(deg)": 48.736814766336764,
        "Longitude(deg)": -29.440851693660765,
        "Mean Anomaly(deg)": -249.90840713242244,
        "RAAN(deg)": 309.990143368528,
        "Satellite Name": "Starlink Shell 1 1370",
        "Satellite Number": 1370,
        "Semi-Major Axis(m)": 6931778.249405717,
        "Time(s)": 190
    },
    {
        "Altitude(m)": 558833.5094698853,
        "Argument of Periapsis(deg)": 0.0069715695902247375,
        "Eccentricity": 0.0,
        "Inclination(deg)": 53.0,
        "Latitude(deg)": 48.47302156366,
        "Longitude(deg)": -28.624188875254227,
        "Mean Anomaly(deg)": -249.28157592886566,
        "RAAN(deg)": 309.9896245984506,
        "Satellite Name": "Starlink Shell 1 1370",
        "Satellite Number": 1370,
        "Semi-Major Axis(m)": 6931778.249405717,
        "Time(s)": 200
    },
    {
        "Altitude(m)": 558771.7678909064,
        "Argument of Periapsis(deg)": 0.007320148069735974,
        "Eccentricity": 0.0,
        "Inclination(deg)": 53.0,
        "Latitude(deg)": 48.20288924239537,
        "Longitude(deg)": -27.816472479127274,
        "Mean Anomaly(deg)": -248.654744725309,
        "RAAN(deg)": 309.9891058283731,
        "Satellite Name": "Starlink Shell 1 1370",
        "Satellite Number": 1370,
        "Semi-Major Axis(m)": 6931778.249405717,
        "Time(s)": 210
    },
    {
        "Altitude(m)": 558708.6428694905,
        "Argument of Periapsis(deg)": 0.007668726549247212,
        "Eccentricity": 0.0,
        "Inclination(deg)": 53.0,
        "Latitude(deg)": 47.926542263271244,
        "Longitude(deg)": -27.017730942601556,
        "Mean Anomaly(deg)": -248.0279135217523,
        "RAAN(deg)": 309.9885870582956,
        "Satellite Name": "Starlink Shell 1 1370",
        "Satellite Number": 1370,
        "Semi-Major Axis(m)": 6931778.249405717,
        "Time(s)": 220
    },
    {
        "Altitude(m)": 558644.1732143888,
        "Argument of Periapsis(deg)": 0.00801730502875845,
        "Eccentricity": 0.0,
        "Inclination(deg)": 53.0,
        "Latitude(deg)": 47.644104711436015,
        "Longitude(deg)": -26.227980909010217,
        "Mean Anomaly(deg)": -247.40108231819553,
        "RAAN(deg)": 309.98806828821813,
        "Satellite Name": "Starlink Shell 1 1370",
        "Satellite Number": 1370,
        "Semi-Major Axis(m)": 6931778.249405717,
        "Time(s)": 230
    },
    {
        "Altitude(m)": 558578.3986196775,
        "Argument of Periapsis(deg)": 0.008365883508269684,
        "Eccentricity": 0.0,
        "Inclination(deg)": 53.0,
        "Latitude(deg)": 47.35570013222336,
        "Longitude(deg)": -25.447227274951793,
        "Mean Anomaly(deg)": -246.77425111463882,
        "RAAN(deg)": 309.98754951814067,
        "Satellite Name": "Starlink Shell 1 1370",
        "Satellite Number": 1370,
        "Semi-Major Axis(m)": 6931778.249405717,
        "Time(s)": 240
    },
    {
        "Altitude(m)": 558511.3596451413,
        "Argument of Periapsis(deg)": 0.008714461987780921,
        "Eccentricity": 0.0,
        "Inclination(deg)": 53.0,
        "Latitude(deg)": 47.06145137811556,
        "Longitude(deg)": -24.675464755950575,
        "Mean Anomaly(deg)": -246.14741991108215,
        "RAAN(deg)": 309.9870307480632,
        "Satellite Name": "Starlink Shell 1 1370",
        "Satellite Number": 1370,
        "Semi-Major Axis(m)": 6931778.249405717,
        "Time(s)": 250
    },
    {
        "Altitude(m)": 558443.097696163,
        "Argument of Periapsis(deg)": 0.009063040467292158,
        "Eccentricity": 0.0,
        "Inclination(deg)": 53.0,
        "Latitude(deg)": 46.761480466783226,
        "Longitude(deg)": -23.9126779413126,
        "Mean Anomaly(deg)": -245.52058870752543,
        "RAAN(deg)": 309.98651197798574,
        "Satellite Name": "Starlink Shell 1 1370",
        "Satellite Number": 1370,
        "Semi-Major Axis(m)": 6931778.249405717,
        "Time(s)": 260
    },
    {
        "Altitude(m)": 558373.6550032308,
        "Argument of Periapsis(deg)": 0.009411618946803396,
        "Eccentricity": 0.0,
        "Inclination(deg)": 53.0,
        "Latitude(deg)": 46.45590845001633,
        "Longitude(deg)": -23.158841347883445,
        "Mean Anomaly(deg)": -244.8937575039687,
        "RAAN(deg)": 309.9859932079082,
        "Satellite Name": "Starlink Shell 1 1370",
        "Satellite Number": 1370,
        "Semi-Major Axis(m)": 6931778.249405717,
        "Time(s)": 270
    },
    {
        "Altitude(m)": 558303.0746009516,
        "Argument of Periapsis(deg)": 0.009760197426314633,
        "Eccentricity": 0.0,
        "Inclination(deg)": 53.0,
        "Latitude(deg)": 46.144855293306534,
        "Longitude(deg)": -22.413920982706053,
        "Mean Anomaly(deg)": -244.26692630041197,
        "RAAN(deg)": 309.98547443783076,
        "Satellite Name": "Starlink Shell 1 1370",
        "Satellite Number": 1370,
        "Semi-Major Axis(m)": 6931778.249405717,
        "Time(s)": 280
    },
    {
        "Altitude(m)": 558231.400306707,
        "Argument of Periapsis(deg)": 0.01010877590582587,
        "Eccentricity": 0.0,
        "Inclination(deg)": 53.0,
        "Latitude(deg)": 45.82843976580691,
        "Longitude(deg)": -21.677874386260417,
        "Mean Anomaly(deg)": -243.64009509685528,
        "RAAN(deg)": 309.9849556677533,
        "Satellite Name": "Starlink Shell 1 1370",
        "Satellite Number": 1370,
        "Semi-Major Axis(m)": 6931778.249405717,
        "Time(s)": 290
    },
    {
        "Altitude(m)": 558158.6766988601,
        "Argument of Periapsis(deg)": 0.010457354385337106,
        "Eccentricity": 0.0,
        "Inclination(deg)": 53.0,
        "Latitude(deg)": 45.506779340347116,
        "Longitude(deg)": -20.950650666866736,
        "Mean Anomaly(deg)": -243.01326389329859,
        "RAAN(deg)": 309.98443689767583,
        "Satellite Name": "Starlink Shell 1 1370",
        "Satellite Number": 1370,
        "Semi-Major Axis(m)": 6931778.249405717,
        "Time(s)": 300
    },
    {
        "Altitude(m)": 558084.9490945681,
        "Argument of Periapsis(deg)": 0.010805932864848343,
        "Eccentricity": 0.0,
        "Inclination(deg)": 53.0,
        "Latitude(deg)": 45.17999010315237,
        "Longitude(deg)": -20.232192037114093,
        "Mean Anomaly(deg)": -242.38643268974178,
        "RAAN(deg)": 309.9839181275983,
        "Satellite Name": "Starlink Shell 1 1370",
        "Satellite Number": 1370,
        "Semi-Major Axis(m)": 6931778.249405717,
        "Time(s)": 310
    },
    {
        "Altitude(m)": 558010.2635272196,
        "Argument of Periapsis(deg)": 0.01115451134435958,
        "Eccentricity": 0.0,
        "Inclination(deg)": 53.0,
        "Latitude(deg)": 44.84818667289611,
        "Longitude(deg)": -19.522433824828468,
        "Mean Anomaly(deg)": -241.75960148618518,
        "RAAN(deg)": 309.98339935752085,
        "Satellite Name": "Starlink Shell 1 1370",
        "Satellite Number": 1370,
        "Semi-Major Axis(m)": 6931778.249405717,
        "Time(s)": 320
    },
    {
        "Altitude(m)": 557934.6667234869,
        "Argument of Periapsis(deg)": 0.011503089823870818,
        "Eccentricity": 0.0,
        "Inclination(deg)": 53.0,
        "Latitude(deg)": 44.51148212868751,
        "Longitude(deg)": -18.82130446996179,
        "Mean Anomaly(deg)": -241.13277028262837,
        "RAAN(deg)": 309.98288058744345,
        "Satellite Name": "Starlink Shell 1 1370",
        "Satellite Number": 1370,
        "Semi-Major Axis(m)": 6931778.249405717,
        "Time(s)": 330
    },
    {
        "Altitude(m)": 557858.206079987,
        "Argument of Periapsis(deg)": 0.011851668303382053,
        "Eccentricity": 0.0,
        "Inclination(deg)": 53.0,
        "Latitude(deg)": 44.16998794658368,
        "Longitude(deg)": -18.128727019028304,
        "Mean Anomaly(deg)": -240.50593907907177,
        "RAAN(deg)": 309.9823618173659,
        "Satellite Name": "Starlink Shell 1 1370",
        "Satellite Number": 1370,
        "Semi-Major Axis(m)": 6931778.249405717,
        "Time(s)": 340
    },
    {
        "Altitude(m)": 557780.9296395992,
        "Argument of Periapsis(deg)": 0.012200246782893292,
        "Eccentricity": 0.0,
        "Inclination(deg)": 53.0,
        "Latitude(deg)": 43.82381394420859,
        "Longitude(deg)": -17.444619090315133,
        "Mean Anomaly(deg)": -239.879107875515,
        "RAAN(deg)": 309.98184304728846,
        "Satellite Name": "Starlink Shell 1 1370",
        "Satellite Number": 1370,
        "Semi-Major Axis(m)": 6931778.249405717,
        "Time(s)": 350
    },
    {
        "Altitude(m)": 557702.8860674599,
        "Argument of Periapsis(deg)": 0.012548825262404526,
        "Eccentricity": 0.0,
        "Inclination(deg)": 53.0,
        "Latitude(deg)": 43.47306823305287,
        "Longitude(deg)": -16.768892821928343,
        "Mean Anomaly(deg)": -239.25227667195819,
        "RAAN(deg)": 309.981324277211,
        "Satellite Name": "Starlink Shell 1 1370",
        "Satellite Number": 1370,
        "Semi-Major Axis(m)": 6931778.249405717,
        "Time(s)": 360
    },
    {
        "Altitude(m)": 557624.1246265558,
        "Argument of Periapsis(deg)": 0.012897403741915765,
        "Eccentricity": 0.0,
        "Inclination(deg)": 53.0,
        "Latitude(deg)": 43.117857178022284,
        "Longitude(deg)": -16.101456314916856,
        "Mean Anomaly(deg)": -238.62544546840155,
        "RAAN(deg)": 309.9808055071335,
        "Satellite Name": "Starlink Shell 1 1370",
        "Satellite Number": 1370,
        "Semi-Major Axis(m)": 6931778.249405717,
        "Time(s)": 370
    }
]